{
  "type": "FeatureCollection",
  "features": [
    {
      "type": "Feature",
      "properties": {
        "norad_id": 31760,
        "name": "FENGYUN 1C DEB",
        "group": "fengyun-1c-debris",
        "lat": 49.78049434449032,
        "lon": -69.8054861300055,
        "alt_km": 752.9282016191,
        "timestamp": "2025-12-26T12:57:39.556682+00:00",
        "meta_object_name": "FENGYUN 1C DEB",
        "meta_object_id": "1999-025CFK",
        "meta_epoch": "2025-12-26T05:38:32.754048",
        "meta_mean_motion": 14.3022616,
        "meta_eccentricity": 0.0053153,
        "meta_inclination": 99.2537,
        "meta_ra_of_asc_node": 98.7549,
        "meta_arg_of_pericenter": 158.9018,
        "meta_mean_anomaly": 201.4371,
        "meta_ephemeris_type": 0,
        "meta_classification_type": "U",
        "meta_norad_cat_id": 31760,
        "meta_element_set_no": 999,
        "meta_rev_at_epoch": 96325,
        "meta_bstar": 0.0007202072,
        "meta_mean_motion_dot": 1.846e-05,
        "meta_mean_motion_ddot": 0,
        "tle_line1": "1 31760U 99025CFK 25360.23510132  .00001846  00000+0  72021-3 0  9998",
        "tle_line2": "2 31760  99.2537  98.7549 0053153 158.9018 201.4371 14.30226160963253"
      },
      "geometry": {
        "type": "Point",
        "coordinates": [
          -69.8054861300055,
          49.78049434449032
        ]
      }
    },
    {
      "type": "Feature",
      "properties": {
        "norad_id": 31761,
        "name": "FENGYUN 1C DEB",
        "group": "fengyun-1c-debris",
        "lat": 80.95066413366631,
        "lon": 116.35309491516348,
        "alt_km": 1092.1255073188431,
        "timestamp": "2025-12-26T12:57:39.556693+00:00",
        "meta_object_name": "FENGYUN 1C DEB",
        "meta_object_id": "1999-025CFL",
        "meta_epoch": "2025-12-24T21:08:00.024576",
        "meta_mean_motion": 14.03628424,
        "meta_eccentricity": 0.0471112,
        "meta_inclination": 98.6346,
        "meta_ra_of_asc_node": 222.2063,
        "meta_arg_of_pericenter": 229.1126,
        "meta_mean_anomaly": 126.8327,
        "meta_ephemeris_type": 0,
        "meta_classification_type": "U",
        "meta_norad_cat_id": 31761,
        "meta_element_set_no": 999,
        "meta_rev_at_epoch": 58281,
        "meta_bstar": 0.0017711,
        "meta_mean_motion_dot": 7.518e-05,
        "meta_mean_motion_ddot": 0,
        "tle_line1": "1 31761U 99025CFL 25358.88055584  .00007518  00000+0  17711-2 0  9998",
        "tle_line2": "2 31761  98.6346 222.2063 0471112 229.1126 126.8327 14.03628424582819"
      },
      "geometry": {
        "type": "Point",
        "coordinates": [
          116.35309491516348,
          80.95066413366631
        ]
      }
    },
    {
      "type": "Feature",
      "properties": {
        "norad_id": 31763,
        "name": "FENGYUN 1C DEB",
        "group": "fengyun-1c-debris",
        "lat": 3.4663660975788626,
        "lon": 106.50861746637219,
        "alt_km": 716.2264667949157,
        "timestamp": "2025-12-26T12:57:39.556705+00:00",
        "meta_object_name": "FENGYUN 1C DEB",
        "meta_object_id": "1999-025CFN",
        "meta_epoch": "2025-12-24T01:21:59.387040",
        "meta_mean_motion": 13.50350677,
        "meta_eccentricity": 0.0546364,
        "meta_inclination": 98.5205,
        "meta_ra_of_asc_node": 104.8899,
        "meta_arg_of_pericenter": 40.2812,
        "meta_mean_anomaly": 141.7775,
        "meta_ephemeris_type": 0,
        "meta_classification_type": "U",
        "meta_norad_cat_id": 31763,
        "meta_element_set_no": 999,
        "meta_rev_at_epoch": 91158,
        "meta_bstar": 0.00057862124,
        "meta_mean_motion_dot": 9.11e-06,
        "meta_mean_motion_ddot": 0,
        "tle_line1": "1 31763U 99025CFN 25358.05693735  .00000911  00000+0  57862-3 0  9997",
        "tle_line2": "2 31763  98.5205 104.8899 0546364  40.2812 141.7775 13.50350677911588"
      },
      "geometry": {
        "type": "Point",
        "coordinates": [
          106.50861746637219,
          3.4663660975788626
        ]
      }
    },
    {
      "type": "Feature",
      "properties": {
        "norad_id": 31766,
        "name": "FENGYUN 1C DEB",
        "group": "fengyun-1c-debris",
        "lat": -18.66790502530212,
        "lon": 174.9784159048586,
        "alt_km": 848.4296526693097,
        "timestamp": "2025-12-26T12:57:39.556715+00:00",
        "meta_object_name": "FENGYUN 1C DEB",
        "meta_object_id": "1999-025CFR",
        "meta_epoch": "2025-12-22T05:29:01.188672",
        "meta_mean_motion": 14.05283405,
        "meta_eccentricity": 0.00734706,
        "meta_inclination": 98.8171,
        "meta_ra_of_asc_node": 353.7923,
        "meta_arg_of_pericenter": 264.1767,
        "meta_mean_anomaly": 95.1022,
        "meta_ephemeris_type": 0,
        "meta_classification_type": "U",
        "meta_norad_cat_id": 31766,
        "meta_element_set_no": 999,
        "meta_rev_at_epoch": 64219,
        "meta_bstar": 0.00016407086,
        "meta_mean_motion_dot": 2.28e-06,
        "meta_mean_motion_ddot": 0,
        "tle_line1": "1 31766U 99025CFR 25356.22848598  .00000228  00000+0  16407-3 0  9997",
        "tle_line2": "2 31766  98.8171 353.7923 0073470 264.1767  95.1022 14.05283405642198"
      },
      "geometry": {
        "type": "Point",
        "coordinates": [
          174.9784159048586,
          -18.66790502530212
        ]
      }
    },
    {
      "type": "Feature",
      "properties": {
        "norad_id": 31767,
        "name": "FENGYUN 1C DEB",
        "group": "fengyun-1c-debris",
        "lat": 23.035254193874255,
        "lon": -146.3661658907025,
        "alt_km": 893.158147066476,
        "timestamp": "2025-12-26T12:57:39.556725+00:00",
        "meta_object_name": "FENGYUN 1C DEB",
        "meta_object_id": "1999-025CFS",
        "meta_epoch": "2025-12-24T13:06:04.201344",
        "meta_mean_motion": 14.04960762,
        "meta_eccentricity": 0.00413509,
        "meta_inclination": 98.8206,
        "meta_ra_of_asc_node": 27.9098,
        "meta_arg_of_pericenter": 37.4471,
        "meta_mean_anomaly": 118.1343,
        "meta_ephemeris_type": 0,
        "meta_classification_type": "U",
        "meta_norad_cat_id": 31767,
        "meta_element_set_no": 999,
        "meta_rev_at_epoch": 94991,
        "meta_bstar": 0.00032088657,
        "meta_mean_motion_dot": 4.77e-06,
        "meta_mean_motion_ddot": 0,
        "tle_line1": "1 31767U 99025CFS 25358.54588196  .00000477  00000+0  32089-3 0  9990",
        "tle_line2": "2 31767  98.8206  27.9098 0041350  37.4471 118.1343 14.04960762949915"
      },
      "geometry": {
        "type": "Point",
        "coordinates": [
          -146.3661658907025,
          23.035254193874255
        ]
      }
    },
    {
      "type": "Feature",
      "properties": {
        "norad_id": 31768,
        "name": "FENGYUN 1C DEB",
        "group": "fengyun-1c-debris",
        "lat": -29.962049195142466,
        "lon": -110.21581811273366,
        "alt_km": 644.9198567773192,
        "timestamp": "2025-12-26T12:57:39.556735+00:00",
        "meta_object_name": "FENGYUN 1C DEB",
        "meta_object_id": "1999-025CFT",
        "meta_epoch": "2025-12-24T23:24:56.682720",
        "meta_mean_motion": 14.7653893,
        "meta_eccentricity": 0.00265868,
        "meta_inclination": 99.0407,
        "meta_ra_of_asc_node": 73.3007,
        "meta_arg_of_pericenter": 301.9277,
        "meta_mean_anomaly": 237.8153,
        "meta_ephemeris_type": 0,
        "meta_classification_type": "U",
        "meta_norad_cat_id": 31768,
        "meta_element_set_no": 999,
        "meta_rev_at_epoch": 97053,
        "meta_bstar": 0.0026794233,
        "meta_mean_motion_dot": 0.00018774,
        "meta_mean_motion_ddot": 0,
        "tle_line1": "1 31768U 99025CFT 25358.97565605  .00018774  00000+0  26794-2 0  9992",
        "tle_line2": "2 31768  99.0407  73.3007 0026586 301.9277 237.8153 14.76538930970531"
      },
      "geometry": {
        "type": "Point",
        "coordinates": [
          -110.21581811273366,
          -29.962049195142466
        ]
      }
    },
    {
      "type": "Feature",
      "properties": {
        "norad_id": 31772,
        "name": "FENGYUN 1C DEB",
        "group": "fengyun-1c-debris",
        "lat": -11.549456588105494,
        "lon": -81.02015856858479,
        "alt_km": 849.218791117486,
        "timestamp": "2025-12-26T12:57:39.556745+00:00",
        "meta_object_name": "FENGYUN 1C DEB",
        "meta_object_id": "1999-025CFX",
        "meta_epoch": "2025-12-21T17:20:55.932576",
        "meta_mean_motion": 14.11729705,
        "meta_eccentricity": 0.01371811,
        "meta_inclination": 98.4737,
        "meta_ra_of_asc_node": 272.682,
        "meta_arg_of_pericenter": 88.103,
        "meta_mean_anomaly": 273.5847,
        "meta_ephemeris_type": 0,
        "meta_classification_type": "U",
        "meta_norad_cat_id": 31772,
        "meta_element_set_no": 999,
        "meta_rev_at_epoch": 71010,
        "meta_bstar": 0.0008718097,
        "meta_mean_motion_dot": 1.696e-05,
        "meta_mean_motion_ddot": 0,
        "tle_line1": "1 31772U 99025CFX 25355.72286959  .00001696  00000+0  87181-3 0  9992",
        "tle_line2": "2 31772  98.4737 272.6820 0137181  88.1030 273.5847 14.11729705710100"
      },
      "geometry": {
        "type": "Point",
        "coordinates": [
          -81.02015856858479,
          -11.549456588105494
        ]
      }
    }
  ]
}